CCSDS_OMM_VERS = 2.0
CREATION_DATE  = 
ORIGINATOR     = 

OBJECT_NAME    = ALOS (DAICHI)
OBJECT_ID      = 2006-002A
CENTER_NAME    = EARTH
REF_FRAME      = TEME
TIME_SYSTEM    = UTC
MEAN_ELEMENT_THEORY = SGP/SGP4

EPOCH          = 2026-03-02T21:35:10.205088
MEAN_MOTION    = 14.69783069
ECCENTRICITY   = .0001184
INCLINATION    = 98.1206
RA_OF_ASC_NODE = 17.8895
ARG_OF_PERICENTER = 51.1652
MEAN_ANOMALY   = 308.9660

EPHEMERIS_TYPE = 0
CLASSIFICATION_TYPE = U
NORAD_CAT_ID   = 28931
ELEMENT_SET_NO = 999
REV_AT_EPOCH   = 7248
BSTAR          = .29746E-3
MEAN_MOTION_DOT = .1726E-4
MEAN_MOTION_DDOT = 0

CCSDS_OMM_VERS = 2.0
CREATION_DATE  = 
ORIGINATOR     = 

OBJECT_NAME    = H-2A R/B
OBJECT_ID      = 2006-002B
CENTER_NAME    = EARTH
REF_FRAME      = TEME
TIME_SYSTEM    = UTC
MEAN_ELEMENT_THEORY = SGP/SGP4

EPOCH          = 2026-03-02T22:39:38.484288
MEAN_MOTION    = 15.16243282
ECCENTRICITY   = .0051953
INCLINATION    = 98.2396
RA_OF_ASC_NODE = 208.3895
ARG_OF_PERICENTER = 264.2394
MEAN_ANOMALY   = 95.2912

EPHEMERIS_TYPE = 0
CLASSIFICATION_TYPE = U
NORAD_CAT_ID   = 28932
ELEMENT_SET_NO = 999
REV_AT_EPOCH   = 9341
BSTAR          = .58336E-3
MEAN_MOTION_DOT = .11604E-3
MEAN_MOTION_DDOT = 0

CCSDS_OMM_VERS = 2.0
CREATION_DATE  = 
ORIGINATOR     = 

OBJECT_NAME    = RESURS-DK 1
OBJECT_ID      = 2006-021A
CENTER_NAME    = EARTH
REF_FRAME      = TEME
TIME_SYSTEM    = UTC
MEAN_ELEMENT_THEORY = SGP/SGP4

EPOCH          = 2026-03-02T23:44:16.415232
MEAN_MOTION    = 15.12690123
ECCENTRICITY   = .0002469
INCLINATION    = 69.9302
RA_OF_ASC_NODE = 254.3570
ARG_OF_PERICENTER = 165.6054
MEAN_ANOMALY   = 194.5183

EPHEMERIS_TYPE = 0
CLASSIFICATION_TYPE = U
NORAD_CAT_ID   = 29228
ELEMENT_SET_NO = 999
REV_AT_EPOCH   = 8651
BSTAR          = .1801E-3
MEAN_MOTION_DOT = .3053E-4
MEAN_MOTION_DDOT = 0

CCSDS_OMM_VERS = 2.0
CREATION_DATE  = 
ORIGINATOR     = 

OBJECT_NAME    = CZ-4B R/B
OBJECT_ID      = 2006-046C
CENTER_NAME    = EARTH
REF_FRAME      = TEME
TIME_SYSTEM    = UTC
MEAN_ELEMENT_THEORY = SGP/SGP4

EPOCH          = 2026-03-03T01:52:57.783648
MEAN_MOTION    = 15.16820564
ECCENTRICITY   = .0031819
INCLINATION    = 97.5606
RA_OF_ASC_NODE = 107.0048
ARG_OF_PERICENTER = 291.4105
MEAN_ANOMALY   = 68.3734

EPHEMERIS_TYPE = 0
CLASSIFICATION_TYPE = U
NORAD_CAT_ID   = 29507
ELEMENT_SET_NO = 999
REV_AT_EPOCH   = 5904
BSTAR          = .2943E-3
MEAN_MOTION_DOT = .579E-4
MEAN_MOTION_DDOT = 0

CCSDS_OMM_VERS = 2.0
CREATION_DATE  = 
ORIGINATOR     = 

OBJECT_NAME    = CZ-2C R/B
OBJECT_ID      = 2007-010B
CENTER_NAME    = EARTH
REF_FRAME      = TEME
TIME_SYSTEM    = UTC
MEAN_ELEMENT_THEORY = SGP/SGP4

EPOCH          = 2026-03-03T04:10:35.593248
MEAN_MOTION    = 14.20243384
ECCENTRICITY   = .0058073
INCLINATION    = 98.3976
RA_OF_ASC_NODE = 175.7796
ARG_OF_PERICENTER = 313.9014
MEAN_ANOMALY   = 45.7376

EPHEMERIS_TYPE = 0
CLASSIFICATION_TYPE = U
NORAD_CAT_ID   = 31114
ELEMENT_SET_NO = 999
REV_AT_EPOCH   = 97879
BSTAR          = .81753E-4
MEAN_MOTION_DOT = .136E-5
MEAN_MOTION_DDOT = 0

CCSDS_OMM_VERS = 2.0
CREATION_DATE  = 
ORIGINATOR     = 

OBJECT_NAME    = COSMO-SKYMED 1
OBJECT_ID      = 2007-023A
CENTER_NAME    = EARTH
REF_FRAME      = TEME
TIME_SYSTEM    = UTC
MEAN_ELEMENT_THEORY = SGP/SGP4

EPOCH          = 2026-03-03T04:17:18.765888
MEAN_MOTION    = 14.96471999
ECCENTRICITY   = .0000825
INCLINATION    = 97.8862
RA_OF_ASC_NODE = 253.1592
ARG_OF_PERICENTER = 87.3665
MEAN_ANOMALY   = 272.7651

EPHEMERIS_TYPE = 0
CLASSIFICATION_TYPE = U
NORAD_CAT_ID   = 31598
ELEMENT_SET_NO = 999
REV_AT_EPOCH   = 1393
BSTAR          = .33937E-3
MEAN_MOTION_DOT = .3793E-4
MEAN_MOTION_DDOT = 0

CCSDS_OMM_VERS = 2.0
CREATION_DATE  = 
ORIGINATOR     = 

OBJECT_NAME    = COSMOS 2428
OBJECT_ID      = 2007-029A
CENTER_NAME    = EARTH
REF_FRAME      = TEME
TIME_SYSTEM    = UTC
MEAN_ELEMENT_THEORY = SGP/SGP4

EPOCH          = 2026-03-02T21:07:10.634016
MEAN_MOTION    = 14.12944293
ECCENTRICITY   = .0008735
INCLINATION    = 70.9419
RA_OF_ASC_NODE = 217.6361
ARG_OF_PERICENTER = 284.2813
MEAN_ANOMALY   = 75.7338

EPHEMERIS_TYPE = 0
CLASSIFICATION_TYPE = U
NORAD_CAT_ID   = 31792
ELEMENT_SET_NO = 999
REV_AT_EPOCH   = 96313
BSTAR          = .70675E-4
MEAN_MOTION_DOT = .84E-6
MEAN_MOTION_DDOT = 0

CCSDS_OMM_VERS = 2.0
CREATION_DATE  = 
ORIGINATOR     = 

OBJECT_NAME    = SL-16 R/B
OBJECT_ID      = 2007-029B
CENTER_NAME    = EARTH
REF_FRAME      = TEME
TIME_SYSTEM    = UTC
MEAN_ELEMENT_THEORY = SGP/SGP4

EPOCH          = 2026-03-02T19:03:40.608864
MEAN_MOTION    = 14.14834082
ECCENTRICITY   = .00024173
INCLINATION    = 70.9755
RA_OF_ASC_NODE = 186.8781
ARG_OF_PERICENTER = 278.4023
MEAN_ANOMALY   = 233.4083

EPHEMERIS_TYPE = 0
CLASSIFICATION_TYPE = U
NORAD_CAT_ID   = 31793
ELEMENT_SET_NO = 999
REV_AT_EPOCH   = 96439
BSTAR          = -.72517866E-4
MEAN_MOTION_DOT = -.188E-5
MEAN_MOTION_DDOT = 0

CCSDS_OMM_VERS = 2.0
CREATION_DATE  = 
ORIGINATOR     = 

OBJECT_NAME    = KORONAS-FOTON
OBJECT_ID      = 2009-003A
CENTER_NAME    = EARTH
REF_FRAME      = TEME
TIME_SYSTEM    = UTC
MEAN_ELEMENT_THEORY = SGP/SGP4

EPOCH          = 2026-03-03T02:03:20.306016
MEAN_MOTION    = 15.43131494
ECCENTRICITY   = .001076
INCLINATION    = 82.4283
RA_OF_ASC_NODE = 282.7444
ARG_OF_PERICENTER = 172.1551
MEAN_ANOMALY   = 187.9866

EPHEMERIS_TYPE = 0
CLASSIFICATION_TYPE = U
NORAD_CAT_ID   = 33504
ELEMENT_SET_NO = 999
REV_AT_EPOCH   = 94472
BSTAR          = .31432E-3
MEAN_MOTION_DOT = .13981E-3
MEAN_MOTION_DDOT = 0

CCSDS_OMM_VERS = 2.0
CREATION_DATE  = 
ORIGINATOR     = 

OBJECT_NAME    = CZ-2C R/B
OBJECT_ID      = 2011-030B
CENTER_NAME    = EARTH
REF_FRAME      = TEME
TIME_SYSTEM    = UTC
MEAN_ELEMENT_THEORY = SGP/SGP4

EPOCH          = 2026-03-02T20:31:22.855296
MEAN_MOTION    = 14.81188763
ECCENTRICITY   = .0053055
INCLINATION    = 97.8530
RA_OF_ASC_NODE = 19.2554
ARG_OF_PERICENTER = 14.2735
MEAN_ANOMALY   = 39.3040

EPHEMERIS_TYPE = 0
CLASSIFICATION_TYPE = U
NORAD_CAT_ID   = 37731
ELEMENT_SET_NO = 999
REV_AT_EPOCH   = 78908
BSTAR          = .27444E-3
MEAN_MOTION_DOT = .2133E-4
MEAN_MOTION_DDOT = 0

CCSDS_OMM_VERS = 2.0
CREATION_DATE  = 
ORIGINATOR     = 

OBJECT_NAME    = H-2A R/B
OBJECT_ID      = 2012-025E
CENTER_NAME    = EARTH
REF_FRAME      = TEME
TIME_SYSTEM    = UTC
MEAN_ELEMENT_THEORY = SGP/SGP4

EPOCH          = 2026-03-02T21:39:21.656736
MEAN_MOTION    = 14.95093298
ECCENTRICITY   = .0044012
INCLINATION    = 98.4711
RA_OF_ASC_NODE = 28.4055
ARG_OF_PERICENTER = 336.6891
MEAN_ANOMALY   = 23.2331

EPHEMERIS_TYPE = 0
CLASSIFICATION_TYPE = U
NORAD_CAT_ID   = 38341
ELEMENT_SET_NO = 999
REV_AT_EPOCH   = 74720
BSTAR          = .44642E-3
MEAN_MOTION_DOT = .4919E-4
MEAN_MOTION_DDOT = 0

CCSDS_OMM_VERS = 2.0
CREATION_DATE  = 
ORIGINATOR     = 

OBJECT_NAME    = SHIJIAN-16 (SJ-16)
OBJECT_ID      = 2013-057A
CENTER_NAME    = EARTH
REF_FRAME      = TEME
TIME_SYSTEM    = UTC
MEAN_ELEMENT_THEORY = SGP/SGP4

EPOCH          = 2026-03-03T04:38:13.929792
MEAN_MOTION    = 14.92311517
ECCENTRICITY   = .0015707
INCLINATION    = 74.9726
RA_OF_ASC_NODE = 197.3844
ARG_OF_PERICENTER = 129.4568
MEAN_ANOMALY   = 230.8013

EPHEMERIS_TYPE = 0
CLASSIFICATION_TYPE = U
NORAD_CAT_ID   = 39358
ELEMENT_SET_NO = 999
REV_AT_EPOCH   = 67053
BSTAR          = .64885E-3
MEAN_MOTION_DOT = .6622E-4
MEAN_MOTION_DDOT = 0

